0 STARLINK-5429
1 54801U 22175AV  23216.38634438 -.00001783  00000-0 -93986-4 0  9998
2 54801  53.2178 340.7827 0000994  86.1492 273.9614 15.08837921 34608
0 STARLINK-5426
1 54802U 22175AW  23216.40525760  .00000823  00000-0  69780-4 0  9996
2 54802  53.2172 285.8941 0001537  29.3047 330.8031 15.08832243 35371
0 STARLINK-5426
1 54802U 22175AW  23216.60400174 -.00002004  00000-0 -10792-3 0  9992
2 54802  53.2182 285.0128 0001737  44.9258 315.1875 15.08808647 35407
0 STARLINK-5422
1 54804U 22175AY  23216.46782771 -.00001340  00000-0 -66121-4 0  9994
2 54804  53.2184 325.6159 0000961  70.3858 289.7238 15.08832134 34825
0 STARLINK-5417
1 54805U 22175AZ  23215.80076884  .00000561  00000-0  53288-4 0  9995
2 54805  53.2185 328.5601 0000757  87.1594 272.9485 15.08848429 34728
0 STARLINK-5417
1 54805U 22175AZ  23216.46318942 -.00001470  00000-0 -74363-4 0  9991
2 54805  53.2184 325.5889 0000784  78.0526 282.0554 15.08827175 34821
0 STARLINK-5417
1 54805U 22175AZ  23216.59566601 -.00001914  00000-0 -10224-3 0  9990
2 54805  53.2176 324.9927 0000792  86.2121 273.8962 15.08835227 34849
0 STARLINK-5412
1 54806U 22175BA  23215.78971841  .00005059  00000-0  33556-3 0  9992
2 54806  53.2171 328.4937 0000956  87.4105 272.6996 15.08858191 34728
0 STARLINK-5412
1 54806U 22175BA  23216.45212702 -.00001942  00000-0 -10397-3 0  9998
2 54806  53.2165 325.5208 0001082  88.6981 271.4135 15.08836407 34825
0 STARLINK-5410
1 54807U 22175BB  23215.79340307  .00003010  00000-0  20705-3 0  9998
2 54807  53.2184 328.5153 0001112  86.2068 273.9051 15.08855434 34727
0 STARLINK-5410
1 54807U 22175BB  23216.45581600 -.00000850  00000-0 -35367-4 0  9997
2 54807  53.2180 325.5404 0001136 100.7364 259.3756 15.08832772 34827
0 STARLINK-5413
1 54808U 22175BC  23215.77188110  .00001548  00000-0  11529-3 0  9997
2 54808  53.2168 314.1930 0001172 120.7128 239.3980 15.08855013 34923
0 STARLINK-5413
1 54808U 22175BC  23216.43430845 -.00001400  00000-0 -69916-4 0  9999
2 54808  53.2190 311.2265 0001186  61.8079 298.3033 15.08829343 35025
0 STARLINK-5413
1 54808U 22175BC  23216.69926174 -.00000613  00000-0 -20458-4 0  9995
2 54808  53.2181 310.0342 0001156  86.7127 273.3997 15.08836963 35067
0 STARLINK-5414
1 54809U 22175BD  23216.44844615 -.00001060  00000-0 -48556-4 0  9994
2 54809  53.2175 325.4970 0001129  83.4327 276.6793 15.08835254 34829
0 STARLINK-5408
1 54810U 22175BE  23215.77463571  .00000920  00000-0  75843-4 0  9990
2 54810  53.2172 324.0986 0001024  77.6837 282.4270 15.08853666 34782
0 STARLINK-5408
1 54810U 22175BE  23216.43705362 -.00002285  00000-0 -12552-3 0  9996
2 54810  53.2163 321.1226 0001059  97.7468 262.3644 15.08837151 34882
0 STARLINK-5424
1 54811U 22175BF  23216.60165083 -.00000325  00000-0 -23277-5 0  9997
2 54811  53.2167 320.0211 0001050  90.2763 269.8349 15.08833536 34917
0 STARLINK-5382
1 54820U 22177A   23216.06065378  .00000837  00000-0  77030-4 0  9996
2 54820  43.0024 248.2054 0001438 320.5749  39.4988 15.02535552 33274
0 STARLINK-5385
1 54821U 22177B   23216.11493715  .00021203  00000-0  15847-2 0  9999
2 54821  43.0019 247.7535 0000604 324.8354  35.2448 15.02421416 33289
0 STARLINK-5385
1 54821U 22177B   23216.44733017  .00008560  00000-0  64887-3 0  9997
2 54821  43.0020 245.9478 0000846 294.8192  65.2562 15.02482009 33332
0 STARLINK-5385
1 54821U 22177B   23216.51379829 -.00000531  00000-0 -24230-4 0  9993
2 54821  43.0021 245.5879 0001664 306.9140  53.1550 15.02526647 33342
0 STARLINK-5101
1 54822U 22177C   23216.44173763  .00002222  00000-0  17946-3 0  9997
2 54822  43.0030 245.8961 0001307 278.3357  81.7337 15.02553886 33338
0 STARLINK-5106
1 54823U 22177D   23216.25676099 -.00000292  00000-0 -65728-5 0  9997
2 54823  43.0023 247.0917 0001284 274.5398  85.5297 15.02530369 33308
0 STARLINK-4643
1 54824U 22177E   23216.12047639  .00000188  00000-0  28980-4 0  9996
2 54824  43.0021 247.7884 0001197 266.3686  93.7020 15.02528226 33280
0 STARLINK-4801
1 54825U 22177F   23216.44620395 -.00000238  00000-0 -25481-5 0  9990
2 54825  43.0026 245.9301 0001435 278.0312  82.0368 15.02530205 33333
0 STARLINK-5107
1 54826U 22177G   23216.44399212 -.00000352  00000-0 -10993-4 0  9990
2 54826  43.0033 245.9159 0001219 275.8676  84.2028 15.02520160 33337
0 STARLINK-5383
1 54827U 22177H   23216.43621353  .00000215  00000-0  30983-4 0  9991
2 54827  43.0032 245.8566 0001324 274.4136  85.6555 15.02532853 33333
0 STARLINK-5381
1 54828U 22177J   23216.23345079 -.00000214  00000-0 -74892-6 0  9998
2 54828  43.0026 246.9144 0001154 285.2534  74.8181 15.02532524 33301
0 STARLINK-5380
1 54829U 22177K   23216.45064592 -.00000048  00000-0  11556-4 0  9991
2 54829  43.0026 245.9660 0001317 272.2796  87.7895 15.02530508 33339
0 STARLINK-5394
1 54830U 22177L   23216.42733440  .00000036  00000-0  17769-4 0  9993
2 54830  43.0017 245.7871 0001314 274.5951  85.4742 15.02532517 33336
0 STARLINK-5395
1 54831U 22177M   23216.43843311  .00000139  00000-0  25374-4 0  9999
2 54831  43.0037 245.8718 0001372 269.2020  90.8666 15.02533860 33339
0 STARLINK-5393
1 54832U 22177N   23216.40330029 -.00001325  00000-0 -83046-4 0  9994
2 54832  43.0022 233.4738 0001100 297.2301  62.8429 15.02524308 33479
0 STARLINK-5391
1 54833U 22177P   23216.23012204  .00000784  00000-0  73077-4 0  9997
2 54833  43.0000 246.8919 0001125 322.2050  37.8713 15.02530574 33304
0 STARLINK-5386
1 54834U 22177Q   23216.42511943 -.00000620  00000-0 -30834-4 0  9998
2 54834  43.0027 245.7730 0001282 275.4902  84.5794 15.02529191 33336
0 STARLINK-5389
1 54835U 22177R   23216.16475365  .00000095  00000-0  22084-4 0  9999
2 54835  43.0028 247.2576 0001266 278.1634  81.9064 15.02531602 33293
0 STARLINK-5384
1 54836U 22177S   23216.08939681 -.00000221  00000-0 -12552-5 0  9990
2 54836  43.0021 247.5533 0001366 271.6893  88.3793 15.02527734 33289
0 STARLINK-5369
1 54837U 22177T   23216.22457620 -.00000977  00000-0 -57304-4 0  9996
2 54837  43.0026 246.8498 0001153 277.4080  82.6632 15.02527873 33309
0 STARLINK-5372
1 54838U 22177U   23216.21569627 -.00000604  00000-0 -29670-4 0  9999
2 54838  43.0033 246.7804 0001259 275.9011  84.1688 15.02526805 33304
0 STARLINK-5110
1 54839U 22177V   23216.14366198  .00000156  00000-0  26619-4 0  9990
2 54839  43.0030 247.0999 0001431 278.2980  81.7700 15.02535248 33291
0 STARLINK-5368
1 54840U 22177W   23216.07496497  .00003344  00000-0  26254-3 0  9996
2 54840  43.0014 247.4445 0001707 265.7350  94.3297 15.02531297 33283
0 STARLINK-4659
1 54841U 22177X   23216.41845410  .00000040  00000-0  18048-4 0  9991
2 54841  43.0023 245.7223 0001282 270.0744  89.9951 15.02532210 33332
0 STARLINK-5387
1 54842U 22177Y   23216.13478365 -.00000256  00000-0 -39076-5 0  9998
2 54842  43.0012 247.0304 0001416 235.9196 124.1512 15.02531035 33290
0 STARLINK-5304
1 54843U 22177Z   23216.08051619  .00001042  00000-0  92200-4 0  9991
2 54843  43.0031 247.4856 0001489 266.9062  93.1610 15.02529755 33283
0 STARLINK-5388
1 54844U 22177AA  23216.12923330  .00000026  00000-0  16993-4 0  9991
2 54844  43.0028 246.9711 0001456 271.3157  88.7518 15.02530193 33299
0 STARLINK-5082
1 54845U 22177AB  23216.40402518  .00000056  00000-0  19231-4 0  9994
2 54845  43.0034 245.6122 0001396 267.6215  92.4468 15.02533202 33330
0 STARLINK-5360
1 54846U 22177AC  23216.13256649 -.00000124  00000-0  58553-5 0  9995
2 54846  43.0018 247.0163 0001229 267.5208  92.5493 15.02528254 33295
0 STARLINK-5061
1 54847U 22177AD  23216.69043466  .00000575  00000-0  57662-4 0  9996
2 54847  43.0028 218.3079 0001430 267.0249  93.0430 15.02537386 33673
0 STARLINK-5432
1 54848U 22177AE  23216.13183059 -.00000972  00000-0 -56897-4 0  9991
2 54848  43.0028 234.8608 0001327 268.9540  91.1150 15.02529446 33434
0 STARLINK-5432
1 54848U 22177AE  23216.39773942 -.00004490  00000-0 -31740-3 0  9993
2 54848  43.0020 233.4155 0001750 282.4383  77.6263 15.02546507 33479
0 STARLINK-5432
1 54848U 22177AE  23216.46422351 -.00000869  00000-0 -49275-4 0  9995
2 54848  43.0031 233.0559 0001484 278.1787  81.8887 15.02526324 33484
0 STARLINK-5434
1 54849U 22177AF  23216.12812296 -.00000068  00000-0  10073-4 0  9994
2 54849  43.0032 246.9788 0001401 279.8139  80.2545 15.02533440 33291
0 STARLINK-5087
1 54850U 22177AG  23216.05980054 -.00000667  00000-0 -34289-4 0  9997
2 54850  43.0025 235.1761 0001707 240.9517 119.1155 15.02528922 33427
0 STARLINK-5084
1 54851U 22177AH  23216.12961271 -.00000895  00000-0 -51215-4 0  9997
2 54851  43.0029 234.8422 0001460 271.0130  89.0545 15.02527384 33434
0 STARLINK-5418
1 54852U 22177AJ  23216.12073184 -.00000538  00000-0 -24726-4 0  9996
2 54852  43.0023 234.7768 0001303 275.4346  84.6348 15.02531909 33434
0 STARLINK-5427
1 54853U 22177AK  23216.05758075  .00000471  00000-0  49953-4 0  9991
2 54853  43.0023 235.1666 0001273 310.4300  49.6431 15.02534209 33422
0 STARLINK-5427
1 54853U 22177AK  23216.45645910 -.00000905  00000-0 -51985-4 0  9990
2 54853  43.0017 232.9974 0000569 274.5419  85.5358 15.02523585 33488
0 STARLINK-5419
1 54854U 22177AL  23216.04870030  .00000523  00000-0  53768-4 0  9994
2 54854  43.0014 235.0987 0001275 301.0313  59.0404 15.02532178 33428
0 STARLINK-5416
1 54855U 22177AM  23216.05092155  .00000774  00000-0  72357-4 0  9993
2 54855  43.0027 235.1127 0001445 270.2029  89.8648 15.02530993 33424
0 STARLINK-5086
1 54856U 22177AN  23216.09742310 -.00000671  00000-0 -34581-4 0  9998
2 54856  43.0031 234.6001 0001395 271.6139  88.4544 15.02532975 33439
0 STARLINK-5078
1 54857U 22177AP  23216.12184210  .00000299  00000-0  37190-4 0  9995
2 54857  43.0029 234.7857 0001115 276.5117  83.5598 15.02530427 33432
0 STARLINK-5407
1 54858U 22177AQ  23215.91019294  .00000253  00000-0  33788-4 0  9990
2 54858  43.0022 235.7774 0001269 273.5771  86.4927 15.02534974 33404
0 STARLINK-5409
1 54859U 22177AR  23216.43314004  .00000098  00000-0  22359-4 0  9995
2 54859  43.0031 232.8199 0001434 280.0129  80.0552 15.02533749 33489
0 STARLINK-5406
1 54860U 22177AS  23216.09520122 -.00000210  00000-0 -51197-6 0  9991
2 54860  43.0012 234.5821 0001042 260.6705  99.4019 15.02529424 33432
